APRIZESAT 2             
1 28366U 04025A   26181.43539120  .00000215  00000+0  79832-4 0  9991
2 28366  98.1024 346.6665 0104933 209.4711 150.0536 14.38041457153546
SAUDICOMSAT 1           
1 28369U 04025D   26181.00921539  .00000405  00000+0  10397-3 0  9997
2 28369  98.5770 191.4866 0031812 346.5380  13.4964 14.55483759165993
SAUDICOMSAT 2           
1 28370U 04025E   26180.96032348  .00000242  00000+0  73911-4 0  9995
2 28370  98.6638 193.5678 0054640 220.1108 139.6045 14.49987822161958
APRIZESAT 1             
1 28372U 04025G   26180.97621988  .00000301  00000+0  85982-4 0  9999
2 28372  98.6302 192.0498 0045649 115.7213 244.8705 14.51784297163764
NANOSAT-1               
1 28493U 04049B   26181.82440288  .00001103  00000+0  15242-3 0  9998
2 28493  98.2293 318.8200 0002854 238.9381 121.1550 14.80186426157464
SAUDICOMSAT 7           
1 31119U 07012C   26181.48945677  .00000534  00000+0  10455-3 0  9992
2 31119  98.3785 155.8938 0056225 153.5740 206.8350 14.66122826 24380
SAUDICOMSAT 6           
1 31121U 07012E   26181.43084032  .00000495  00000+0  10441-3 0  9990
2 31121  98.4105 149.1942 0070434 285.9374  73.4074 14.62572568 22121
SAUDICOMSAT 5           
1 31124U 07012H   26181.71690983  .00000748  00000+0  13682-3 0  9993
2 31124  98.3496 156.8700 0048735  83.2587 277.4160 14.68174607 25580
SAUDICOMSAT 3           
1 31125U 07012J   26181.72199564  .00000913  00000+0  15678-3 0  9995
2 31125  98.3150 157.4225 0039370  11.2780 348.9299 14.70728895 26819
SAUDICOMSAT 4           
1 31127U 07012L   26181.47755649  .00000415  00000+0  86055-4 0  9996
2 31127  98.3990 154.3196 0062555 215.9610 143.7375 14.64523944 23232
APRIZESAT 4             
1 35684U 09041D   26181.67588131  .00000667  00000+0  86160-4 0  9990
2 35684  98.1410 257.2651 0041892 278.0919  81.5543 14.83896456913361
APRIZESAT 3             
1 35686U 09041F   26181.40687672  .00000823  00000+0  75961-4 0  9994
2 35686  98.2077 335.2653 0062166  24.4362 335.9783 14.96276948918352
S-NET D                 
1 43186U 18014G   26181.78843402  .00005262  00000+0  27111-3 0  9999
2 43186  97.5355  86.4945 0007429 344.5140  15.5864 15.16798867460824
S-NET B                 
1 43187U 18014H   26181.80015356  .00005544  00000+0  28567-3 0  9991
2 43187  97.5359  86.4931 0007887 338.3796  21.7102 15.16769135460820
S-NET A                 
1 43188U 18014J   26181.78723677  .00005173  00000+0  26652-3 0  9992
2 43188  97.5370  86.6920 0007792 339.5606  20.5314 15.16807021460821
S-NET C                 
1 43189U 18014K   26181.80409898  .00005694  00000+0  29332-3 0  9998
2 43189  97.5387  86.7851 0008866 329.3385  30.7329 15.16761132459377
SALSAT                  
1 46495U 20068K   26181.48833811  .00007517  00000+0  26165-3 0  9990
2 46495  97.8843 185.3641 0007929 251.0233 109.0147 15.29983096317397
OOV-CUBE (TUBSAT-30)    
1 60240U 24128F   26181.56269237  .00001824  00000+0  14864-3 0  9997
2 60240  61.9924 178.9308 0042979 136.7327 223.7153 15.02821133108122
LPNTSAT-001 (IOD-1)     
1 68408U 26065A   26181.18956252  .00002463  00000+0  12203-3 0  9996
2 68408  97.4003  61.4238 0015342 324.1823  35.8382 15.18601924 14239
